#dP2020 12 30  0  0  0.00000000      96 __u+U ITR00 FIT  IAC
## 2138 259200.00000000   900.00000000 59213 0.0000000000000
+  116   C01C02C03C04C05C06C07C08C09C10C11C12C13C14C16C19C20
+        C21C22C23C24C25C26C27C28C29C30C32C33C34C35C36C37E01
+        E02E03E04E05E07E08E09E11E12E13E14E15E18E19E21E24E25
+        E26E27E30E31E33E36G01G02G03G04G05G06G07G08G09G10G11
+        G12G13G14G15G16G17G18G19G20G21G22G23G24G25G26G27G28
+        G29G30G31G32J01J02J03R01R02R03R04R05R06R07R08R09R10
+        R11R12R13R14R15R16R17R18R19R20R21R22R23R24  0  0  0
++        14 13 14 14 13  8  9  9  8  9  8  8  8  8  8  8  8
++         8  8  8  8  8  8  8  8  8  8  8  8  9  8  8  8  4
++         5  4  5  4  5  4  4  5  5  4  4  4  4  6  4  5  5
++         5  4  5  5  5  5  4  4  4  4  4  4  4  3  4  4  4
++         4  4  3  4  4  4  4  4  4  4  4  4  4  4  4  4  4
++         4  4  4  4  9  8  9  6  6  6  6  6 13  6  6  6 13
++         8  6  6  6  6  6  6  6  7  7  6  7 13  6  0  0  0
%c M  cc GPS ccc cccc cccc cccc cccc ccccc ccccc ccccc ccccc
%c cc cc ccc ccc cccc cccc cccc cccc ccccc ccccc ccccc ccccc
%f  0.0000000  0.000000000  0.00000000000  0.000000000000000
%f  0.0000000  0.000000000  0.00000000000  0.000000000000000
%i    0    0    0    0      0      0      0      0         0
%i    0    0    0    0      0      0      0      0         0
/* INFORMATION & ANALYSIS CENTER (IAC)            RAPID DATA
/* S/V CLOCKS ARE ALIGNED TO GNSS TIME                      
/* G:C1WC2W R:C1PC2P E:C1XC5X C:C2IC6I J:C1CC2S             
/* PCV:IGS14_2134 OL/AL:FES2004  NONE     YN ORB:CoN CLK:CoN
*  2020 12 30  3 30  0.00000000
PC01 -34372.416930  24401.591668   -102.197301   -724.646084
PC02   4470.583656  41933.462241    554.400781    633.628118
PC03 -14735.236633  39540.485374   -329.872793    278.462354
PC04 -39623.923319  14371.753880   -637.062299   -298.264897
PC05  21904.296617  36019.854520    910.926069   -414.325887
PC06 -10709.872267  22559.243421  34405.866807     93.601511
PC07 -23242.716269  31817.244130 -15446.710584   -178.016015
PC08  -8628.097147  37479.094911 -16690.177283   -842.757275
PC09   6451.392725  29384.239013  29960.242028    838.428458
PC10 -10534.488329  32321.152105 -24981.996605   -113.394632
PC11  21376.137645  17898.311813   -146.945228   -851.374329
PC12   8463.741779  20835.454237 -16462.954971    697.159310
PC13   -306.617259  41822.743963  -3876.546764     75.377247
PC14  17175.946559   8387.772859  20333.472836   -209.463358
PC16  -8823.215821  22733.626379  34486.073614   -644.514508
PC19 -23868.634200  -1172.714708 -14401.124247    672.208424
PC20  -9211.718020 -13277.865402 -22743.641894   -909.786270
PC21 -11694.293540  17991.185864  17860.197945   -772.619888
PC22 -25131.769315  11894.320807   2521.714320   -829.109780
PC23  15529.345423 -14086.813563 -18419.183349   -887.105852
PC24   5542.017030  24093.134986 -12921.108121   -734.765181
PC25  15349.972161   6103.826771 -22494.722844   -879.384029
PC26  -5815.361212  27092.443932   3119.747634    960.107382
PC27   1447.246084 -17901.487173  21341.756120    457.800763
PC28  17855.209332  -4145.012648  21047.297011   -127.953283
PC29 -24192.380325 -11084.225789  -8402.831260    331.551934
PC30 -16179.241412 -20622.998220   9547.256814    424.248014
PC32  11577.275930 -18075.317508 -17822.465790   -881.341931
PC33  23821.436473   1157.516908  14479.920048   -891.551600
PC34  16617.243301  20571.087722  -8951.266716   -774.905578
PC35 -17906.643815   4581.340558 -20894.927131   -489.859135
PC36 -15114.149214  -6843.131882  22460.865129   -790.277104
PC37   6929.863565 -26764.955045  -3872.314899   -861.574888
PE01 -20369.586656  20064.056843   7641.071823  -1013.970847
PE02  20343.041611 -20157.492654  -7529.769955    187.294212
PE03  22723.922879  -9658.855930 -16325.156698   -381.608582
PE04  -3032.508856  16896.261420  24111.262919   -678.284030
PE05  29385.219233   3363.595226   1166.479387   -317.139693
PE07 -18831.023380 -14300.389231 -17813.371300   -481.053687
PE08   2573.841649 -16812.027554 -24231.773740   6069.669344
PE09  19030.401161  14033.973582  17794.319273   5816.105271
PE11  15485.200466  24722.169787   5058.226947   6554.029748
PE12   2270.537892  26003.314518 -13962.059407   5432.313164
PE13 -15371.871285 -24856.379093  -4681.577834    409.312434
PE14  -6253.881866  19553.231622 -24904.707709  -1276.947147
PE15  -2433.889692 -25992.793445  13965.269697    836.741210
PE18  -4025.328744 -16712.330435  16957.798609  -1395.475820
PE19 -24340.862375   8232.062704  14687.477004    165.560713
PE21 -19918.188484   3123.653323  21669.684805   -640.025201
PE24   7430.589225  16684.273735 -23296.729040   -662.239650
PE25  19866.191196  -2968.799727 -21738.771066   -523.271048
PE26 -19259.963387  -8464.439210 -20814.042693   2324.603446
PE27  -7910.435783 -16189.133603  23492.163694     61.848858
PE30   9348.429390 -25911.210043  10856.144918   3304.292042
PE31  -8667.987785  25856.229925 -11491.369244   -476.919408
PE33 -11906.109468  11845.984356 -24360.825304   -464.458594
PE36  19260.581550   9098.270087  20565.094228    461.130127
PG01  14367.320628  -2733.968858  21933.180407    788.452373
PG02 -13898.486519 -19226.472888 -11279.098421   -560.210763
PG03  22016.961701 -11308.736738   9416.035213    -42.956461
PG04  23673.775786   -584.359302 -12072.361485   -168.586496
PG05 -15089.107370  -6173.912149 -21152.772505    -29.652759
PG06  -5456.481920 -25967.996484    323.675096     -4.554095
PG07   8061.354035 -18693.263876 -16463.460309      1.832538
PG08  25957.030249   4776.789699   4162.027908     -4.725448
PG09  14887.131795 -10101.331686 -19609.046017   -307.136725
PG10  -7041.707424  20593.311636  15137.548157    -27.561638
PG11  20067.711787   4621.139609  16127.791607    -67.342107
PG12 -22316.364387   7236.506950  12060.202682     20.015666
PG13 -22593.611399 -13560.568053  -3947.653530     80.348674
PG14   9968.067662 -20586.760309  13492.438114     75.884167
PG15 -26264.683460  -1851.992015   4393.097263   -179.846425
PG16  13993.902203   7662.156456 -21537.935575   -257.611338
PG17  -3158.788035 -16317.562219  21155.266401    373.639360
PG18  -6665.645498  20694.495945 -15222.551621    337.146005
PG19 -10976.186384 -17104.320387  16862.536246    -58.687798
PG20 -14716.086541  21669.416718   3345.811670    525.394965
PG21  16852.229090   5841.362839  20537.145722     82.217468
PG22  20486.120094  -4504.618838  16394.700209   -707.051190
PG23 -15650.751456  20626.365560   5811.712206    113.475857
PG24 -16368.120534  -1688.788464  20676.520369      4.429942
PG25 -19661.889016  17619.647224    369.832203     49.529310
PG26   4581.760991  16291.461358 -20455.556183     22.153682
PG27  22218.303078  12673.985470  -7957.910922    -45.418428
PG28   7214.954893 -19775.006739  16877.429025    636.605778
PG29 -16399.514377   7458.973954 -19567.370937   -265.846153
PG30   1111.106816 -25212.418836  -7870.679879   -360.625858
PG31   6669.107991  25329.039572  -2500.871333    -90.721763
PG32   4659.230869  16506.942044  20408.964613     11.314192
PJ01 -31487.112859  25362.596765  17066.006744   -335.438647
PJ02 -32271.833972  25647.727235  13810.791383      0.353591
PJ03 -22829.711218  19187.510407 -25152.457907     -5.053803
PR01  -1220.888212  11479.003422  22742.341886     72.758912
PR02  19608.927864   3963.466714  15898.249169    460.741617
PR03  25037.213538  -5014.896970   -365.746972     28.219045
PR04  16278.714472 -10918.752591 -16308.435968     67.808665
PR05  -1519.414388 -10730.615553 -23087.151400     63.813525
PR06 -20303.097584  -3083.688083 -15128.068261    190.057691
PR07 -24898.163935   5321.146001   1108.200541    -41.993281
PR08 -16187.189345  11037.461077  16368.586789    -56.575352
PR09  -8409.636369  -9285.307546  22225.439050     15.786449
PR10 -12958.986534   8530.771288  20213.660724    -65.130346
PR11 -10395.051478  22470.195144   6166.098583      5.089731
PR12  -1840.585323  22580.837760 -11669.899140    192.422772
PR13   7976.659866   9647.053999 -22241.696385    -48.634688
PR14  13209.278947  -9381.082001 -19689.318561     59.280687
PR15  10632.873190 -22460.166532  -5756.515585    106.125858
PR16    819.318455 -22373.017166  12327.175588     -9.677121
PR17  15447.118694   4078.462896  19886.651320    386.760417
PR18   4499.071384 -10537.609811  22805.093683     61.387861
PR19  -7913.419223 -19726.950444  14114.913470   -125.783466
PR20 -17425.366120 -17839.852639  -5250.521430   -429.996843
PR21 -14902.933283  -3241.818567 -20447.731401   -176.738345
PR22  -3492.886046  11485.611298 -22526.993966    -89.694663
PR23  13078.984943  20615.326200  -7389.108135    356.088275
PR24  17878.255644  17184.619412   5968.885245     25.885138
EOF
